[{"OBJECT_NAME":"ONEWEB-0235","OBJECT_ID":"2021-045E","EPOCH":"2025-11-20T04:46:17.458752","MEAN_MOTION":13.15547464,"ECCENTRICITY":0.00023496,"INCLINATION":87.8962,"RA_OF_ASC_NODE":300.8853,"ARG_OF_PERICENTER":87.8213,"MEAN_ANOMALY":272.3186,"EPHEMERIS_TYPE":0,"CLASSIFICATION_TYPE":"U","NORAD_CAT_ID":48771,"ELEMENT_SET_NO":999,"REV_AT_EPOCH":21690,"BSTAR":-0.0002351048,"MEAN_MOTION_DOT":-7.6e-7,"MEAN_MOTION_DDOT":0},{"OBJECT_NAME":"ONEWEB-0242","OBJECT_ID":"2021-045F","EPOCH":"2025-11-20T04:37:10.702272","MEAN_MOTION":13.15547875,"ECCENTRICITY":0.00019941,"INCLINATION":87.8974,"RA_OF_ASC_NODE":300.8787,"ARG_OF_PERICENTER":89.9059,"MEAN_ANOMALY":270.23,"EPHEMERIS_TYPE":0,"CLASSIFICATION_TYPE":"U","NORAD_CAT_ID":48772,"ELEMENT_SET_NO":999,"REV_AT_EPOCH":21694,"BSTAR":-0.0003020006,"MEAN_MOTION_DOT":-1.01e-6,"MEAN_MOTION_DDOT":0},{"OBJECT_NAME":"ONEWEB-0241","OBJECT_ID":"2021-045G","EPOCH":"2025-11-20T04:18:54.184320","MEAN_MOTION":13.15551054,"ECCENTRICITY":0.00023014,"INCLINATION":87.8965,"RA_OF_ASC_NODE":300.9212,"ARG_OF_PERICENTER":80.7856,"MEAN_ANOMALY":279.3534,"EPHEMERIS_TYPE":0,"CLASSIFICATION_TYPE":"U","NORAD_CAT_ID":48773,"ELEMENT_SET_NO":999,"REV_AT_EPOCH":21685,"BSTAR":-5.1489316e-5,"MEAN_MOTION_DOT":-7.0e-8,"MEAN_MOTION_DDOT":0},{"OBJECT_NAME":"ONEWEB-0243","OBJECT_ID":"2021-045H","EPOCH":"2025-11-20T05:04:32.735136","MEAN_MOTION":13.15547436,"ECCENTRICITY":0.00022275,"INCLINATION":87.8968,"RA_OF_ASC_NODE":300.923,"ARG_OF_PERICENTER":92.4598,"MEAN_ANOMALY":267.6787,"EPHEMERIS_TYPE":0,"CLASSIFICATION_TYPE":"U","NORAD_CAT_ID":48774,"ELEMENT_SET_NO":999,"REV_AT_EPOCH":21688,"BSTAR":-0.00027711849,"MEAN_MOTION_DOT":-9.1e-7,"MEAN_MOTION_DDOT":0},{"OBJECT_NAME":"ONEWEB-0222","OBJECT_ID":"2021-045J","EPOCH":"2025-11-20T04:40:35.244768","MEAN_MOTION":13.15538648,"ECCENTRICITY":0.00020501,"INCLINATION":87.8973,"RA_OF_ASC_NODE":300.8786,"ARG_OF_PERICENTER":85.3922,"MEAN_ANOMALY":274.7443,"EPHEMERIS_TYPE":0,"CLASSIFICATION_TYPE":"U","NORAD_CAT_ID":48775,"ELEMENT_SET_NO":999,"REV_AT_EPOCH":21692,"BSTAR":-0.00056951102,"MEAN_MOTION_DOT":-2.02e-6,"MEAN_MOTION_DDOT":0},{"OBJECT_NAME":"ONEWEB-0244","OBJECT_ID":"2021-045K","EPOCH":"2025-11-19T23:49:41.084832","MEAN_MOTION":13.15547391,"ECCENTRICITY":0.00020387,"INCLINATION":87.8977,"RA_OF_ASC_NODE":300.905,"ARG_OF_PERICENTER":88.307,"MEAN_ANOMALY":271.8294,"EPHEMERIS_TYPE":0,"CLASSIFICATION_TYPE":"U","NORAD_CAT_ID":48776,"ELEMENT_SET_NO":999,"REV_AT_EPOCH":21746,"BSTAR":-9.8511432e-5,"MEAN_MOTION_DOT":-2.4e-7,"MEAN_MOTION_DDOT":0},{"OBJECT_NAME":"ONEWEB-0247","OBJECT_ID":"2021-045L","EPOCH":"2025-11-20T05:13:40.726272","MEAN_MOTION":13.15546617,"ECCENTRICITY":0.00027734,"INCLINATION":87.896,"RA_OF_ASC_NODE":300.9206,"ARG_OF_PERICENTER":95.6884,"MEAN_ANOMALY":264.4562,"EPHEMERIS_TYPE":0,"CLASSIFICATION_TYPE":"U","NORAD_CAT_ID":48777,"ELEMENT_SET_NO":999,"REV_AT_EPOCH":21693,"BSTAR":-0.00013122479,"MEAN_MOTION_DOT":-3.7e-7,"MEAN_MOTION_DDOT":0},{"OBJECT_NAME":"ONEWEB-0245","OBJECT_ID":"2021-045M","EPOCH":"2025-11-20T05:06:49.829472","MEAN_MOTION":13.15547365,"ECCENTRICITY":0.00020132,"INCLINATION":87.8959,"RA_OF_ASC_NODE":300.8857,"ARG_OF_PERICENTER":80.8481,"MEAN_ANOMALY":279.2877,"EPHEMERIS_TYPE":0,"CLASSIFICATION_TYPE":"U","NORAD_CAT_ID":48778,"ELEMENT_SET_NO":999,"REV_AT_EPOCH":21690,"BSTAR":-0.00028964936,"MEAN_MOTION_DOT":-9.6e-7,"MEAN_MOTION_DDOT":0},{"OBJECT_NAME":"ONEWEB-0229","OBJECT_ID":"2021-045N","EPOCH":"2025-11-20T04:59:58.603488","MEAN_MOTION":13.15552622,"ECCENTRICITY":0.00021633,"INCLINATION":87.8962,"RA_OF_ASC_NODE":300.8859,"ARG_OF_PERICENTER":88.8084,"MEAN_ANOMALY":271.3294,"EPHEMERIS_TYPE":0,"CLASSIFICATION_TYPE":"U","NORAD_CAT_ID":48779,"ELEMENT_SET_NO":999,"REV_AT_EPOCH":21693,"BSTAR":-0.0029348577,"MEAN_MOTION_DOT":-1.092e-5,"MEAN_MOTION_DDOT":0},{"OBJECT_NAME":"ONEWEB-0228","OBJECT_ID":"2021-045P","EPOCH":"2025-11-20T05:48:06.373152","MEAN_MOTION":13.15546976,"ECCENTRICITY":0.00020284,"INCLINATION":87.8973,"RA_OF_ASC_NODE":300.8608,"ARG_OF_PERICENTER":87.0017,"MEAN_ANOMALY":273.1345,"EPHEMERIS_TYPE":0,"CLASSIFICATION_TYPE":"U","NORAD_CAT_ID":48780,"ELEMENT_SET_NO":999,"REV_AT_EPOCH":21685,"BSTAR":0.00045884024,"MEAN_MOTION_DOT":1.86e-6,"MEAN_MOTION_DDOT":0},{"OBJECT_NAME":"ONEWEB-0232","OBJECT_ID":"2021-045Q","EPOCH":"2025-11-20T05:11:23.679456","MEAN_MOTION":13.15546548,"ECCENTRICITY":0.00019396,"INCLINATION":87.8973,"RA_OF_ASC_NODE":300.8568,"ARG_OF_PERICENTER":86.9443,"MEAN_ANOMALY":273.1909,"EPHEMERIS_TYPE":0,"CLASSIFICATION_TYPE":"U","NORAD_CAT_ID":48781,"ELEMENT_SET_NO":999,"REV_AT_EPOCH":21717,"BSTAR":0.00023881137,"MEAN_MOTION_DOT":1.03e-6,"MEAN_MOTION_DDOT":0},{"OBJECT_NAME":"ONEWEB-0231","OBJECT_ID":"2021-045R","EPOCH":"2025-11-20T04:39:27.473472","MEAN_MOTION":13.15547438,"ECCENTRICITY":0.00021697,"INCLINATION":87.896,"RA_OF_ASC_NODE":300.9071,"ARG_OF_PERICENTER":89.4612,"MEAN_ANOMALY":270.6767,"EPHEMERIS_TYPE":0,"CLASSIFICATION_TYPE":"U","NORAD_CAT_ID":48782,"ELEMENT_SET_NO":999,"REV_AT_EPOCH":21686,"BSTAR":-9.6573111e-5,"MEAN_MOTION_DOT":-2.4e-7,"MEAN_MOTION_DDOT":0},{"OBJECT_NAME":"ONEWEB-0234","OBJECT_ID":"2021-045S","EPOCH":"2025-11-20T05:34:00.636384","MEAN_MOTION":13.15546271,"ECCENTRICITY":0.00017673,"INCLINATION":87.8961,"RA_OF_ASC_NODE":300.8724,"ARG_OF_PERICENTER":59.2086,"MEAN_ANOMALY":300.9218,"EPHEMERIS_TYPE":0,"CLASSIFICATION_TYPE":"U","NORAD_CAT_ID":48783,"ELEMENT_SET_NO":999,"REV_AT_EPOCH":21700,"BSTAR":0.00062396206,"MEAN_MOTION_DOT":2.48e-6,"MEAN_MOTION_DDOT":0},{"OBJECT_NAME":"ONEWEB-0238","OBJECT_ID":"2021-045T","EPOCH":"2025-11-20T05:34:25.538592","MEAN_MOTION":13.15548996,"ECCENTRICITY":0.0001783,"INCLINATION":87.8961,"RA_OF_ASC_NODE":300.8664,"ARG_OF_PERICENTER":76.4593,"MEAN_ANOMALY":283.6736,"EPHEMERIS_TYPE":0,"CLASSIFICATION_TYPE":"U","NORAD_CAT_ID":48784,"ELEMENT_SET_NO":999,"REV_AT_EPOCH":21690,"BSTAR":0.00033530493,"MEAN_MOTION_DOT":1.39e-6,"MEAN_MOTION_DDOT":0},{"OBJECT_NAME":"ONEWEB-0240","OBJECT_ID":"2021-045U","EPOCH":"2025-11-20T04:15:31.334400","MEAN_MOTION":13.15521535,"ECCENTRICITY":0.00025683,"INCLINATION":87.8992,"RA_OF_ASC_NODE":300.8693,"ARG_OF_PERICENTER":81.8798,"MEAN_ANOMALY":278.2623,"EPHEMERIS_TYPE":0,"CLASSIFICATION_TYPE":"U","NORAD_CAT_ID":48785,"ELEMENT_SET_NO":999,"REV_AT_EPOCH":21692,"BSTAR":0.012866791,"MEAN_MOTION_DOT":4.857e-5,"MEAN_MOTION_DDOT":0},{"OBJECT_NAME":"ONEWEB-0246","OBJECT_ID":"2021-045V","EPOCH":"2025-11-20T04:07:31.367712","MEAN_MOTION":13.155482,"ECCENTRICITY":0.0001967,"INCLINATION":87.8974,"RA_OF_ASC_NODE":300.8817,"ARG_OF_PERICENTER":90.163,"MEAN_ANOMALY":269.9725,"EPHEMERIS_TYPE":0,"CLASSIFICATION_TYPE":"U","NORAD_CAT_ID":48786,"ELEMENT_SET_NO":999,"REV_AT_EPOCH":21679,"BSTAR":9.2720427e-5,"MEAN_MOTION_DOT":4.8e-7,"MEAN_MOTION_DDOT":0},{"OBJECT_NAME":"ONEWEB-0210","OBJECT_ID":"2021-045W","EPOCH":"2025-11-20T05:20:32.068032","MEAN_MOTION":13.1554756,"ECCENTRICITY":0.0002376,"INCLINATION":87.8969,"RA_OF_ASC_NODE":300.8708,"ARG_OF_PERICENTER":98.4836,"MEAN_ANOMALY":261.6563,"EPHEMERIS_TYPE":0,"CLASSIFICATION_TYPE":"U","NORAD_CAT_ID":48787,"ELEMENT_SET_NO":999,"REV_AT_EPOCH":21684,"BSTAR":0.0002096639,"MEAN_MOTION_DOT":9.2e-7,"MEAN_MOTION_DDOT":0},{"OBJECT_NAME":"ONEWEB-0214","OBJECT_ID":"2021-045X","EPOCH":"2025-11-19T22:14:59.235936","MEAN_MOTION":13.15550115,"ECCENTRICITY":0.00020663,"INCLINATION":87.8983,"RA_OF_ASC_NODE":300.9188,"ARG_OF_PERICENTER":97.9432,"MEAN_ANOMALY":262.1933,"EPHEMERIS_TYPE":0,"CLASSIFICATION_TYPE":"U","NORAD_CAT_ID":48788,"ELEMENT_SET_NO":999,"REV_AT_EPOCH":21677,"BSTAR":0.00024032337,"MEAN_MOTION_DOT":1.03e-6,"MEAN_MOTION_DDOT":0},{"OBJECT_NAME":"ONEWEB-0221","OBJECT_ID":"2021-045Y","EPOCH":"2025-11-20T05:43:20.593056","MEAN_MOTION":13.15547137,"ECCENTRICITY":0.00021162,"INCLINATION":87.8962,"RA_OF_ASC_NODE":300.8745,"ARG_OF_PERICENTER":86.8771,"MEAN_ANOMALY":273.2601,"EPHEMERIS_TYPE":0,"CLASSIFICATION_TYPE":"U","NORAD_CAT_ID":48789,"ELEMENT_SET_NO":999,"REV_AT_EPOCH":21690,"BSTAR":0.00031545675,"MEAN_MOTION_DOT":1.32e-6,"MEAN_MOTION_DDOT":0},{"OBJECT_NAME":"ONEWEB-0213","OBJECT_ID":"2021-045Z","EPOCH":"2025-11-19T23:58:49.441440","MEAN_MOTION":13.15546978,"ECCENTRICITY":0.00021501,"INCLINATION":87.8958,"RA_OF_ASC_NODE":300.9313,"ARG_OF_PERICENTER":89.7569,"MEAN_ANOMALY":270.3808,"EPHEMERIS_TYPE":0,"CLASSIFICATION_TYPE":"U","NORAD_CAT_ID":48790,"ELEMENT_SET_NO":999,"REV_AT_EPOCH":21693,"BSTAR":0.00023584579,"MEAN_MOTION_DOT":1.02e-6,"MEAN_MOTION_DDOT":0},{"OBJECT_NAME":"ONEWEB-0212","OBJECT_ID":"2021-045AA","EPOCH":"2025-11-20T04:54:17.902368","MEAN_MOTION":13.15549312,"ECCENTRICITY":0.00018812,"INCLINATION":87.8969,"RA_OF_ASC_NODE":300.8782,"ARG_OF_PERICENTER":84.1098,"MEAN_ANOMALY":276.0247,"EPHEMERIS_TYPE":0,"CLASSIFICATION_TYPE":"U","NORAD_CAT_ID":48791,"ELEMENT_SET_NO":999,"REV_AT_EPOCH":21695,"BSTAR":-0.00030791622,"MEAN_MOTION_DOT":-1.03e-6,"MEAN_MOTION_DDOT":0},{"OBJECT_NAME":"ONEWEB-0227","OBJECT_ID":"2021-045AB","EPOCH":"2025-11-20T04:53:08.237184","MEAN_MOTION":13.15543756,"ECCENTRICITY":0.00020511,"INCLINATION":87.8959,"RA_OF_ASC_NODE":300.8909,"ARG_OF_PERICENTER":86.5514,"MEAN_ANOMALY":273.5851,"EPHEMERIS_TYPE":0,"CLASSIFICATION_TYPE":"U","NORAD_CAT_ID":48792,"ELEMENT_SET_NO":999,"REV_AT_EPOCH":21690,"BSTAR":0.0013957409,"MEAN_MOTION_DOT":5.38e-6,"MEAN_MOTION_DDOT":0},{"OBJECT_NAME":"ONEWEB-0226","OBJECT_ID":"2021-045AC","EPOCH":"2025-11-20T04:44:01.463424","MEAN_MOTION":13.15548258,"ECCENTRICITY":0.00021376,"INCLINATION":87.8965,"RA_OF_ASC_NODE":300.9006,"ARG_OF_PERICENTER":92.4678,"MEAN_ANOMALY":267.6697,"EPHEMERIS_TYPE":0,"CLASSIFICATION_TYPE":"U","NORAD_CAT_ID":48793,"ELEMENT_SET_NO":999,"REV_AT_EPOCH":21687,"BSTAR":-7.581786e-5,"MEAN_MOTION_DOT":-1.6e-7,"MEAN_MOTION_DDOT":0}]
